# Made by eph2tle, compiled Jan 26 2025 13:45:38
# Run at Mon Jan 27 22:34:27 2025 UTC
#
# No updates   (archival TLEs)
#
#    The following TLEs (Two-Line Elements) were generated by fitting
# a numerically-integrated ephemeris,  based on the orbit given below,
# to the SDP4/SGP4 models.  Each TLE is good for the interval between
# its epoch and the epoch of the subsequent TLE (usually one day).
# The maximum deviation between the numerically integrated ephemerides
# and the TLE-based ephemeris, in kilometers,  is given for each TLE
# as the "worst residual".
#
#    This fitting is done using the 'eph2tle' code packaged with Find_Orb.
# The code has details on how the TLEs were computed :
#
#    https://github.com/Bill-Gray/find_orb/eph2tle.cpp
#
#    Be warned:  the error given is that between the numerically
# integrated ephems and the TLE model.  There will usually be at
# least some additional difference between the ephems and the actual
# motion of the satellite,  especially if the ephemerides are based
# on a short arc.  If the following orbital elements say something
# like "[based on] 10 observations 2015 Jan. 1-13",  and the TLEs
# are for 2015 May,  the extrapolation may be tenuous at best.  If
# your application requires a specific level of accuracy,  you may
# want to contact me;  I can give you some idea as to the fit of the
# underlying data (and possibly TLEs based on newer data).
#
#   You can usually find the underlying observational data,  and the
# fitted orbit,  residuals,  ephemerides,  and sometimes some comments
# about the object,  among the pages listed at
#
#    https://www.projectpluto.com/pluto/mpecs/pseudo.htm
#
#    WARNING:  for this object,  "normal" TLEs cannot be fitted.  (This
# usually means an object with an hyperbolic or nearly-parabolic orbit.)
# For this and similar cases,   an alternative model is used,  in which
# most of the traditional TLE data is replaced by six signed 8-digit hex
# numbers.  These six numbers are a state vector,  numerically integrated
# using a simplified force model.  This is necessary for objects at L2 or
# L1,  and sometimes for objects in high orbits where the SDP4/SGP4 model
# fails.  Some documentation is in 'get_el.cpp' in the source code at
# https://www.github.com/Bill-Gray/sat_code ; look for 'hex' in that file,
# with the actual integration done in 'sdp4.cpp'.  But be aware:  it's my
# own extension,  doesn't work with other code,  and is therefore used
# only when necessary.
#
#    Also,  if you use a TLE outside the "correct" time range (between
# its MJD and that of the next TLE),  all bets are off.  I've carefully
# computed and minimized the worst error over the "correct" time frame,
# but the ephemeris may (or may not) diverge wildly outside of it.
#
# Ephem range: 51407.000000 51420.000000 1.000000
# Created Mon Jan 27 17:33:35 2025
# Ephemeris start: 17 Aug 1999  0:00:00
# Ephemeris end:   30 Aug 1999  0:00:00
# Times are all TDT
# Positions/velocities are in equatorial J2000
# Orbital elements:  Cassini
#    Perigee 1999 Aug 18.145660 +/- 0.000485 TT =  3:29:45.0 (JD 2451408.645660)
# Epoch 1999 Aug 18.0 TT = JDT 2451408.5                           Find_Orb
# q  7545.586330 +/- 4.96             (J2000 equator)
# H   27.44 G 0.15                    Peri.  248.440423 +/- 0.010
#                                     Node     3.157733 +/- 0.0048
# e   5.85236043 +/- 0.0058           Incl.   25.430615 +/- 0.009
# From 15 observations 1999 Aug. 18-20; mean residual 0".245
#
# 1 NoradU COSPAR   Epoch.epoch     dn/dt/2  d2n/dt2/6 BSTAR    T El# C
# 2 NoradU Inclina RAAscNode Eccent  ArgPeri MeanAno  MeanMotion Rev# C

# Worst residual: 125.28 km
# MJD 51407.000000 (1999 Aug 17  0:00)
Cassini
1 25008U 97061A   99228.99925713 -00N73AXK +00B0OOKL +005U6YVEH 25845
2 25008                          +002BSTT6 -0014DBTX -000LCVPG     02

# Worst residual: 8122.53 km
# MJD 51408.000000 (1999 Aug 18  0:00)
Cassini
1 25008U 97061A   99229.99925713 -00326J6O +001BL17N +000PH6E4H 25841
2 25008                          +002CCBYJ -0014LGR4 -000LHDNJ     00

# Worst residual: 15.36 km
# MJD 51409.000000 (1999 Aug 19  0:00)
Cassini
1 25008U 97061A   99230.99925713 +00JEF0P2 -002O9GE8 -001RUXPLH 25840
2 25008                          +002MAOZV -000CCA2F -0008B6H4     01

# Worst residual: 2.68 km
# MJD 51410.000000 (1999 Aug 20  0:00)
Cassini
1 25008U 97061A   99231.99925713 +0160ZR6H -005MYJU7 -003ROLVZH 25847
2 25008                          +002MA8KY -000CD4VS -0008BHJQ     01

# Worst residual: 3.69 km
# MJD 51411.000000 (1999 Aug 21  0:00)
Cassini
1 25008U 97061A   99232.99925713 +01SNV3T9 -008M0ZWP -005RNOH1H 25847
2 25008                          +002MCNMQ -000CFAMA -0008CDQ3     02

# Worst residual: 4.54 km
# MJD 51412.000000 (1999 Aug 22  0:00)
Cassini
1 25008U 97061A   99233.99925713 +02FBILB3 -00BLQRBJ -007RWEV6H 25849
2 25008                          +002MGOTM -000CIIM6 -0008DPQH     05

# Worst residual: 5.33 km
# MJD 51413.000000 (1999 Aug 23  0:00)
Cassini
1 25008U 97061A   99234.99925713 +0320B52Z -00EMCL15 -009SIDNKH 25849
2 25008                          +002MM5CY -000CMPI5 -0008FFU9     08

# Worst residual: 6.10 km
# MJD 51414.000000 (1999 Aug 24  0:00)
Cassini
1 25008U 97061A   99235.99925713 +03OQKVPB -00HO2J5Y -00BTKT7BH 25840
2 25008                          +002MT00H -000CRSQ5 -0008HITX     04

# Worst residual: 6.92 km
# MJD 51415.000000 (1999 Aug 25  0:00)
Cassini
1 25008U 97061A   99236.99925713 +04BINUNW -00KR433L -00DV6OAFH 25844
2 25008                          +002N1916 -000CXQ01 -0008JXO7     04

# Worst residual: 7.80 km
# MJD 51416.000000 (1999 Aug 26  0:00)
Cassini
1 25008U 97061A   99237.99925713 +04YCW8D8 -00NVO756 -00FXEP55H 25843
2 25008                          +002NAX8C -000D4F6H -0008MNET     07

# Worst residual: 8.71 km
# MJD 51417.000000 (1999 Aug 27  0:00)
Cassini
1 25008U 97061A   99238.99925713 +05L9MFP2 -00R1XBAT -00I0BDZUH 25843
2 25008                          +002NM1QL -000DBU5S -0008PN56     06

# Worst residual: 9.62 km
# MJD 51418.000000 (1999 Aug 28  0:00)
Cassini
1 25008U 97061A   99239.99925713 +068976AU -00UA1DA3 -00K3Z1BJH 25841
2 25008                          +002NYNWQ -000DJWSL -0008SVZ1     00

# Worst residual: 10.49 km
# MJD 51419.000000 (1999 Aug 29  0:00)
Cassini
1 25008U 97061A   99240.99925713 +06VBZICO -00XK5RNM -00M8FPQXH 25848
2 25008                          +002OCT9W -000DSKS5 -0008WCZ1     04
Avg worst resid: 640.70 km
Worst residual in entire run: 8122.53 km on MJD 51408.0
       1     3     10    30    100   300   1K    3K    10K   km
     0     1     8     2     0     1     0     0     1     0
